OBJECT_NAME,OBJECT_ID,EPOCH,MEAN_MOTION,ECCENTRICITY,INCLINATION,RA_OF_ASC_NODE,ARG_OF_PERICENTER,MEAN_ANOMALY,EPHEMERIS_TYPE,CLASSIFICATION_TYPE,NORAD_CAT_ID,ELEMENT_SET_NO,REV_AT_EPOCH,BSTAR,MEAN_MOTION_DOT,MEAN_MOTION_DDOT
STARLINK-2702,2021-040P,2025-07-29T02:07:42.313152,15.06416892,.0001317,53.0546,105.4033,128.3518,231.7590,0,U,48441,999,23420,.41284E-3,.5876E-4,0
STARLINK-2644,2021-040Q,2025-07-28T03:44:51.525024,15.06391729,.0001528,53.0541,109.5886,89.7319,270.3845,0,U,48442,999,23278,.13865E-3,.1784E-4,0
STARLINK-2663,2021-040R,2025-07-29T03:32:38.567040,15.06400965,.0001371,53.0540,105.1325,99.8402,260.2742,0,U,48443,999,23421,-.80606E-4,-.1482E-4,0
STARLINK-2645,2021-040S,2025-07-29T03:27:20.019744,15.06408908,.0001454,53.0536,105.1540,103.7914,256.3237,0,U,48444,999,23421,.63785E-3,.9234E-4,0
STARLINK-2634,2021-040T,2025-07-29T00:10:56.879328,15.06405492,.0001253,53.0539,105.7660,89.0003,271.1130,0,U,48445,999,23419,.77719E-3,.11315E-3,0
STARLINK-2655,2021-040X,2025-07-28T20:43:56.108640,15.06401448,.0001375,53.0551,106.4148,89.9940,270.1206,0,U,48449,999,23417,.10036E-3,.1214E-4,0
STARLINK-2660,2021-040Y,2025-07-28T20:42:35.501760,15.06402604,.0001563,53.0528,106.4423,88.1387,271.9781,0,U,48450,999,23417,.30851E-3,.4317E-4,0
STARLINK-2703,2021-040AA,2025-07-28T20:33:19.333728,15.06399759,.0001441,53.0550,106.4154,88.8338,271.2816,0,U,48452,999,23417,.97492E-4,.1171E-4,0
STARLINK-2620,2021-040AB,2025-07-28T23:39:05.522976,15.06400026,.0001344,53.0553,105.8686,93.7068,266.4075,0,U,48453,999,23419,.21403E-3,.2908E-4,0
STARLINK-2654,2021-040AC,2025-07-28T23:33:47.900160,15.06404412,.000122,53.0553,105.8834,90.2110,269.9019,0,U,48454,999,23419,.29357E-3,.4094E-4,0
STARLINK-2497,2021-040AD,2025-07-28T23:28:28.825824,15.06405435,.0001434,53.0553,105.8998,86.6355,273.4798,0,U,48455,999,23351,.5398E-4,.523E-5,0
STARLINK-2698,2021-040AG,2025-07-28T23:41:06.247968,15.06405951,.0001133,53.0526,110.9489,97.6970,262.4148,0,U,48458,999,23338,.60045E-3,.8675E-4,0
STARLINK-2579,2021-040AH,2025-07-29T01:06:04.072608,15.06397032,.0001381,53.0556,110.9524,87.9862,272.1285,0,U,48459,999,23345,.14683E-3,.1906E-4,0
STARLINK-2582,2021-040AJ,2025-07-28T20:10:51.046176,15.21287755,.0003942,53.0557,100.1007,24.5938,335.5245,0,U,48460,999,23348,.84353E-3,.18827E-3,0
STARLINK-2683,2021-040AL,2025-07-29T01:29:16.971072,15.06409556,.0001287,53.0550,115.8037,79.2576,280.8558,0,U,48462,999,23338,-.92606E-4,-.1661E-4,0
STARLINK-2686,2021-040AN,2025-07-29T04:19:05.555424,15.06383256,.0001138,53.0545,114.9909,76.9520,283.1596,0,U,48464,999,23408,-.15579E-3,-.26E-4,0
STARLINK-2681,2021-040AP,2025-07-28T04:41:54.597120,15.06394061,.0001419,53.0533,119.4104,81.5285,278.5865,0,U,48465,999,23266,-.12279E-3,-.211E-4,0
STARLINK-2687,2021-040AQ,2025-07-29T01:02:41.862912,15.06400526,.0001396,53.0543,115.6066,86.2033,273.9115,0,U,48466,999,23406,.48267E-4,.438E-5,0
STARLINK-2659,2021-040AR,2025-07-29T03:15:23.416416,15.06420916,.0001418,53.0540,115.1917,94.9823,265.1328,0,U,48467,999,23408,.51221E-3,.736E-4,0
STARLINK-2685,2021-040AS,2025-07-28T23:37:46.509312,15.06398296,.0001357,53.0550,115.8698,90.6835,269.4309,0,U,48468,999,23406,.42506E-4,.352E-5,0
STARLINK-2661,2021-040AT,2025-07-28T23:59:00.295872,15.06405019,.0001325,53.0534,115.8043,89.1740,270.9401,0,U,48469,999,23405,.31838E-3,.4465E-4,0
STARLINK-2675,2021-040AU,2025-07-29T00:41:31.447680,15.06409297,.0001303,53.0532,116.0174,93.1135,267.0003,0,U,48470,999,23406,.26966E-3,.3738E-4,0
STARLINK-2684,2021-040AV,2025-07-29T01:18:36.860256,15.06409423,.0001178,53.0536,115.5564,95.9744,264.1379,0,U,48471,999,23407,.40572E-3,.5768E-4,0
STARLINK-2722,2021-040AW,2025-07-29T00:52:05.340288,15.06377054,.0001526,53.0536,115.6398,99.6002,260.5160,0,U,48472,999,23322,-.37326E-3,-.5833E-4,0
STARLINK-2658,2021-040AX,2025-07-29T03:20:41.527392,15.06457328,.0001551,53.0542,115.1777,83.0402,277.0764,0,U,48473,999,23407,.2853E-2,.42537E-3,0
STARLINK-2697,2021-040AY,2025-07-29T04:08:27.170016,15.06413514,.0001385,53.0557,115.0268,86.1800,273.9347,0,U,48474,999,23407,.57625E-4,.577E-5,0
STARLINK-2619,2021-040AZ,2025-07-29T02:01:31.778976,15.36962696,.0002745,53.0335,83.7976,214.7344,145.3479,0,U,48475,999,23450,.19359E-2,.71302E-3,0
STARLINK-2728,2021-040BC,2025-07-29T03:36:37.107936,15.06407361,.0001393,53.0543,115.1278,92.4496,267.6652,0,U,48478,999,23340,.29261E-3,.408E-4,0
STARLINK-2755,2021-040BD,2025-07-29T00:20:14.140320,15.06402840,.0001425,53.0535,115.7385,87.2908,272.8244,0,U,48479,999,23405,.3852E-3,.5461E-4,0
STARLINK-2706,2021-040BF,2025-07-29T01:38:33.927936,15.06405935,.0001392,53.0534,125.7733,101.9815,258.1330,0,U,48481,999,23391,.59428E-3,.8583E-4,0
STARLINK-2525,2021-040BG,2025-07-29T00:50:45.574944,15.06401273,.0001483,53.0539,125.6438,93.0851,267.0307,0,U,48482,999,23308,.13462E-3,.1724E-4,0
STARLINK-2531,2021-040BH,2025-07-29T03:56:30.495840,15.06410864,.0001405,53.0546,125.0612,91.5575,268.5575,0,U,48483,999,23393,.16356E-3,.2156E-4,0
STARLINK-2696,2021-040BJ,2025-07-28T21:07:52.984704,15.55307340,.0001382,53.0423,67.8401,209.6978,150.3954,0,U,48484,999,23472,.13407E-2,.93157E-3,0
STARLINK-2500,2021-040BK,2025-07-29T00:56:03.811200,15.06413538,.0001527,53.0543,125.6271,93.5796,266.5368,0,U,48485,999,23391,.1345E-3,.1723E-4,0
STARLINK-2494,2021-040BM,2025-07-29T04:17:45.502368,15.06412028,.0001483,53.0537,124.9996,82.1544,277.9613,0,U,48487,999,23394,.69379E-3,.10071E-3,0
STARLINK-2063,2021-041A,2025-07-28T19:46:53.039136,15.06400278,.0001208,53.0551,56.5872,94.3124,265.8003,0,U,48553,999,23191,.11048E-3,.1365E-4,0
STARLINK-2139,2021-041B,2025-07-28T19:04:28.550496,15.06391798,.0001297,53.0545,57.0263,91.2913,268.8224,0,U,48554,999,23185,.25219E-4,.94E-6,0
STARLINK-2145,2021-041C,2025-07-28T20:38:38.878944,15.06397570,.0001057,53.0536,66.4272,87.0768,273.0342,0,U,48555,999,23177,.51735E-3,.7432E-4,0
STARLINK-2151,2021-041D,2025-07-28T07:38:24.339264,15.06392726,.0001386,53.0551,68.8584,88.8992,271.2155,0,U,48556,999,23124,.16847E-3,.2228E-4,0
STARLINK-2155,2021-041E,2025-07-28T23:40:25.188960,15.06408792,.0001439,53.0549,55.8646,86.4776,273.6377,0,U,48557,999,23193,.35156E-3,.496E-4,0
STARLINK-2166,2021-041F,2025-07-28T20:24:02.392416,15.06408869,.0001359,53.0539,56.4718,89.2040,270.9105,0,U,48558,999,23186,.41678E-3,.5933E-4,0
STARLINK-2187,2021-041K,2025-07-28T21:27:43.203456,15.06405810,.0001249,53.0566,56.2741,82.3122,277.8009,0,U,48562,999,23187,.20182E-3,.2726E-4,0
STARLINK-2188,2021-041L,2025-07-28T20:18:42.965568,15.06407850,.0001355,53.0556,56.4939,86.2349,273.8794,0,U,48563,999,23191,.2201E-3,.2999E-4,0
STARLINK-2190,2021-041M,2025-07-28T07:23:48.066144,15.06394387,.0001185,53.0555,58.9068,95.7086,264.4038,0,U,48564,999,23138,.12221E-3,.1539E-4,0
STARLINK-2191,2021-041N,2025-07-29T04:44:35.022048,16.26887185,.0012882,53.0170,313.7838,323.4260,113.3762,0,U,48565,999,23338,.9114E-3,.3278262E-1,.12036E-4
STARLINK-2214,2021-041P,2025-07-28T20:33:19.332000,15.06401853,.0001404,53.0547,66.4140,89.2033,270.9117,0,U,48566,999,23172,.15816E-3,.2075E-4,0
STARLINK-2217,2021-041R,2025-07-28T21:11:48.193152,15.06402721,.0001232,53.0550,56.3230,88.9388,271.1742,0,U,48568,999,23186,.27689E-4,.131E-5,0
STARLINK-2219,2021-041S,2025-07-28T23:24:29.075328,15.06410617,.0001242,53.0555,55.9125,85.7575,274.3555,0,U,48569,999,23188,.20075E-3,.2711E-4,0
STARLINK-2220,2021-041T,2025-07-28T21:31:42.391488,15.06405992,.0001397,53.0551,66.2620,87.8634,272.2514,0,U,48570,999,23172,.53222E-4,.511E-5,0
STARLINK-2221,2021-041U,2025-07-28T07:22:28.096896,15.06402423,.0001177,53.0532,68.9100,88.5339,271.5785,0,U,48571,999,23124,.32358E-3,.4542E-4,0
STARLINK-2222,2021-041V,2025-07-28T21:37:01.118496,15.06390217,.0001416,53.0557,66.2444,85.5789,274.5362,0,U,48572,999,23173,.84886E-5,-.155E-5,0
STARLINK-2224,2021-041W,2025-07-28T21:06:29.213856,15.06405920,.0001275,53.0540,56.3395,90.2102,269.9033,0,U,48573,999,23191,.23876E-3,.3277E-4,0
STARLINK-2225,2021-041X,2025-07-29T04:20:25.046880,15.06401365,.0001434,53.0554,25.0762,88.5572,271.5581,0,U,48574,999,23232,.60757E-4,.624E-5,0
STARLINK-2227,2021-041Y,2025-07-28T04:49:56.417952,15.06388981,.0001412,53.0554,19.7045,96.7032,263.4117,0,U,48575,999,23193,.67037E-5,-.182E-5,0
STARLINK-2228,2021-041Z,2025-07-28T19:10:23.430720,15.06403517,.0001452,53.0561,31.7059,92.1016,268.0139,0,U,48576,999,23226,.1491E-3,.194E-4,0
STARLINK-2231,2021-041AA,2025-07-28T21:33:02.962944,15.06430196,.0001426,53.0562,56.5266,71.0401,289.0742,0,U,48577,999,23191,.43046E-3,.6141E-4,0
STARLINK-2232,2021-041AB,2025-07-28T07:18:35.260128,15.06394805,.0001362,53.0557,59.4323,93.3246,266.7899,0,U,48578,999,23137,.19505E-3,.2625E-4,0
STARLINK-2234,2021-041AD,2025-07-28T05:33:00.116640,15.06399366,.0001319,53.0550,34.2594,84.2477,275.8662,0,U,48580,999,23172,.26956E-3,.3736E-4,0
STARLINK-2235,2021-041AE,2025-07-28T18:55:47.562816,15.06400811,.0001409,53.0566,21.7564,93.6503,266.4647,0,U,48581,999,23240,.10419E-3,.1271E-4,0
STARLINK-2236,2021-041AF,2025-07-28T18:29:16.808352,15.06404327,.0001385,53.0559,21.9953,88.7744,271.3404,0,U,48582,999,23238,.1366E-3,.1754E-4,0
STARLINK-2237,2021-041AG,2025-07-28T20:12:05.344128,15.06416010,.000124,53.0551,66.5151,90.2687,269.8444,0,U,48583,999,23177,-.17593E-3,-.2902E-4,0
STARLINK-2238,2021-041AH,2025-07-28T21:10:28.686144,15.06404044,.00014,53.0534,66.3260,90.8349,269.2801,0,U,48584,999,23172,.24398E-3,.3355E-4,0
STARLINK-2241,2021-041AK,2025-07-28T21:15:46.784160,15.06405824,.0001424,53.0541,66.3102,90.4708,269.6444,0,U,48586,999,23172,.20599E-3,.2789E-4,0
STARLINK-2245,2021-041AN,2025-07-28T14:23:07.639872,15.06409895,.0001454,53.0537,57.5982,90.6875,269.4280,0,U,48589,999,23142,.44691E-3,.6383E-4,0
STARLINK-2249,2021-041AR,2025-07-29T00:16:17.781024,15.06407356,.0001386,53.0546,65.9862,88.4295,271.6853,0,U,48592,999,23164,.38608E-3,.5475E-4,0
STARLINK-2250,2021-041AS,2025-07-28T23:54:58.580640,15.06431411,.000123,53.0560,65.8161,74.6272,285.4853,0,U,48593,999,23164,.24622E-3,.3391E-4,0
